start=new Date('2021-09-03T00:00:00.000Z').valueOf();
sats=[{"TLE_LINE1":"1 48095U 21027D   21245.65579377 -.00000604  00000-0 -21669-4 0  9991","NORAD_CAT_ID":"48095","MEAN_ELEMENT_THEORY":"SGP4","SITE":"AFETR","REF_FRAME":"TEME","MEAN_MOTION_DDOT":"0.0000000000000","BSTAR":"-0.00002166900000","FILE":"3107724","ARG_OF_PERICENTER":"121.1713","TLE_LINE2":"2 48095  53.0585  14.4119 0001492 121.1713 238.9423 15.06392838 23883","OBJECT_TYPE":"PAYLOAD","INCLINATION":"53.0585","RA_OF_ASC_NODE":"14.4119","COUNTRY_CODE":"US","OBJECT_NAME":"STARLINK-2414","PERIOD":"95.593","MEAN_MOTION":"15.06392838","MEAN_MOTION_DOT":"-0.00000604","GP_ID":"183988826","RCS_SIZE":"LARGE","OBJECT_ID":"2021-027D","REV_AT_EPOCH":"2388","ECCENTRICITY":"0.00014920","LAUNCH_DATE":"2021-04-07","PERIAPSIS":"546.202","APOAPSIS":"548.269","CLASSIFICATION_TYPE":"U","SEMIMAJOR_AXIS":"6925.371","TIME_SYSTEM":"UTC","EPHEMERIS_TYPE":"0","DECAY_DATE":null,"MEAN_ANOMALY":"238.9423","EPOCH":"2021-09-02T15:44:20.581728","ELEMENT_SET_NO":"999","CENTER_NAME":"EARTH"},{"MEAN_MOTION_DOT":"0.00000802","PERIOD":"95.592","MEAN_MOTION":"15.06398074","RA_OF_ASC_NODE":"14.5300","OBJECT_NAME":"STARLINK-2417","COUNTRY_CODE":"US","MEAN_MOTION_DDOT":"0.0000000000000","REF_FRAME":"TEME","TLE_LINE2":"2 48096  53.0587  14.5300 0001755 113.8797 246.2376 15.06398074 23866","OBJECT_TYPE":"PAYLOAD","INCLINATION":"53.0587","FILE":"3107724","ARG_OF_PERICENTER":"113.8797","BSTAR":"0.00007276600000","MEAN_ELEMENT_THEORY":"SGP4","NORAD_CAT_ID":"48096","TLE_LINE1":"1 48096U 21027E   21245.62998484  .00000802  00000-0  72766-4 0  9995","SITE":"AFETR","EPOCH":"2021-09-02T15:07:10.690176","MEAN_ANOMALY":"246.2376","EPHEMERIS_TYPE":"0","DECAY_DATE":null,"CENTER_NAME":"EARTH","ELEMENT_SET_NO":"999","TIME_SYSTEM":"UTC","PERIAPSIS":"546.004","CLASSIFICATION_TYPE":"U","APOAPSIS":"548.435","SEMIMAJOR_AXIS":"6925.354","ECCENTRICITY":"0.00017550","GP_ID":"183989577","RCS_SIZE":"LARGE","REV_AT_EPOCH":"2386","OBJECT_ID":"2021-027E","LAUNCH_DATE":"2021-04-07"},{"LAUNCH_DATE":"2021-04-07","ECCENTRICITY":"0.00013200","GP_ID":"183987825","OBJECT_ID":"2021-027F","RCS_SIZE":"LARGE","REV_AT_EPOCH":"2415","TIME_SYSTEM":"UTC","PERIAPSIS":"546.318","APOAPSIS":"548.146","CLASSIFICATION_TYPE":"U","SEMIMAJOR_AXIS":"6925.367","CENTER_NAME":"EARTH","ELEMENT_SET_NO":"999","MEAN_ANOMALY":"204.4059","EPOCH":"2021-09-02T16:13:32.293344","DECAY_DATE":null,"EPHEMERIS_TYPE":"0","SITE":"AFETR","MEAN_ELEMENT_THEORY":"SGP4","NORAD_CAT_ID":"48097","TLE_LINE1":"1 48097U 21027F   21245.67606821 -.00000579  00000-0 -20013-4 0  9993","OBJECT_TYPE":"PAYLOAD","TLE_LINE2":"2 48097  53.0570 354.3185 0001320 155.6993 204.4059 15.06393880 24152","INCLINATION":"53.0570","FILE":"3107724","BSTAR":"-0.00002001300000","ARG_OF_PERICENTER":"155.6993","MEAN_MOTION_DDOT":"0.0000000000000","REF_FRAME":"TEME","OBJECT_NAME":"STARLINK-2418","COUNTRY_CODE":"US","RA_OF_ASC_NODE":"354.3185","MEAN_MOTION_DOT":"-0.00000579","MEAN_MOTION":"15.06393880","PERIOD":"95.593"},{"RA_OF_ASC_NODE":"3.8277","COUNTRY_CODE":"US","OBJECT_NAME":"STARLINK-2421","PERIOD":"95.593","MEAN_MOTION":"15.06391037","MEAN_MOTION_DOT":"0.00000036","TLE_LINE1":"1 48098U 21027G   21245.78572880  .00000036  00000-0  21345-4 0  9998","NORAD_CAT_ID":"48098","MEAN_ELEMENT_THEORY":"SGP4","SITE":"AFETR","MEAN_MOTION_DDOT":"0.0000000000000","REF_FRAME":"TEME","FILE":"3107724","ARG_OF_PERICENTER":"133.9230","BSTAR":"0.00002134500000","INCLINATION":"53.0575","TLE_LINE2":"2 48098  53.0575   3.8277 0001417 133.9230 226.1876 15.06391037 24022","OBJECT_TYPE":"PAYLOAD","APOAPSIS":"548.222","PERIAPSIS":"546.260","CLASSIFICATION_TYPE":"U","SEMIMAJOR_AXIS":"6925.376","TIME_SYSTEM":"UTC","DECAY_DATE":null,"EPHEMERIS_TYPE":"0","MEAN_ANOMALY":"226.1876","EPOCH":"2021-09-02T18:51:26.968320","ELEMENT_SET_NO":"999","CENTER_NAME":"EARTH","OBJECT_ID":"2021-027G","GP_ID":"183988075","RCS_SIZE":"LARGE","REV_AT_EPOCH":"2402","ECCENTRICITY":"0.00014170","LAUNCH_DATE":"2021-04-07"},{"TLE_LINE2":"2 48099  53.0528  13.8823 0001214 117.1912 242.9201 15.06394555 23884","OBJECT_TYPE":"PAYLOAD","INCLINATION":"53.0528","BSTAR":"0.00003438000000","FILE":"3107724","ARG_OF_PERICENTER":"117.1912","REF_FRAME":"TEME","MEAN_MOTION_DDOT":"0.0000000000000","SITE":"AFETR","MEAN_ELEMENT_THEORY":"SGP4","NORAD_CAT_ID":"48099","TLE_LINE1":"1 48099U 21027H   21245.77374048  .00000231  00000-0  34380-4 0  9994","MEAN_MOTION_DOT":"0.00000231","PERIOD":"95.592","MEAN_MOTION":"15.06394555","OBJECT_NAME":"STARLINK-2428","COUNTRY_CODE":"US","RA_OF_ASC_NODE":"13.8823","LAUNCH_DATE":"2021-04-07","ECCENTRICITY":"0.00012140","GP_ID":"183989327","REV_AT_EPOCH":"2388","RCS_SIZE":"LARGE","OBJECT_ID":"2021-027H","CENTER_NAME":"EARTH","ELEMENT_SET_NO":"999","EPOCH":"2021-09-02T18:34:11.177472","MEAN_ANOMALY":"242.9201","EPHEMERIS_TYPE":"0","DECAY_DATE":null,"TIME_SYSTEM":"UTC","CLASSIFICATION_TYPE":"U","PERIAPSIS":"546.390","APOAPSIS":"548.071","SEMIMAJOR_AXIS":"6925.365"},{"MEAN_MOTION":"15.06403387","PERIOD":"95.592","MEAN_MOTION_DOT":"-0.00000586","COUNTRY_CODE":"US","OBJECT_NAME":"STARLINK-2430","RA_OF_ASC_NODE":"354.0582","FILE":"3107724","ARG_OF_PERICENTER":"140.5671","BSTAR":"-0.00002043400000","OBJECT_TYPE":"PAYLOAD","TLE_LINE2":"2 48100  53.0578 354.0582 0001386 140.5671 219.5419 15.06403387 24163","INCLINATION":"53.0578","MEAN_MOTION_DDOT":"0.0000000000000","REF_FRAME":"TEME","SITE":"AFETR","TLE_LINE1":"1 48100U 21027J   21245.73503723 -.00000586  00000-0 -20434-4 0  9997","NORAD_CAT_ID":"48100","MEAN_ELEMENT_THEORY":"SGP4","ELEMENT_SET_NO":"999","CENTER_NAME":"EARTH","EPHEMERIS_TYPE":"0","DECAY_DATE":null,"MEAN_ANOMALY":"219.5419","EPOCH":"2021-09-02T17:38:27.216672","PERIAPSIS":"546.243","SEMIMAJOR_AXIS":"6925.338","APOAPSIS":"548.163","CLASSIFICATION_TYPE":"U","TIME_SYSTEM":"UTC","LAUNCH_DATE":"2021-04-07","RCS_SIZE":"LARGE","GP_ID":"183989077","REV_AT_EPOCH":"2416","OBJECT_ID":"2021-027J","ECCENTRICITY":"0.00013860"},{"TIME_SYSTEM":"UTC","CLASSIFICATION_TYPE":"U","PERIAPSIS":"546.285","APOAPSIS":"548.108","SEMIMAJOR_AXIS":"6925.331","ELEMENT_SET_NO":"999","CENTER_NAME":"EARTH","EPHEMERIS_TYPE":"0","DECAY_DATE":null,"EPOCH":"2021-09-02T17:14:32.190432","MEAN_ANOMALY":"212.9309","LAUNCH_DATE":"2021-04-07","ECCENTRICITY":"0.00013160","GP_ID":"183988326","OBJECT_ID":"2021-027K","RCS_SIZE":"LARGE","REV_AT_EPOCH":"2402","OBJECT_NAME":"STARLINK-2436","COUNTRY_CODE":"US","RA_OF_ASC_NODE":"4.1314","PERIOD":"95.592","MEAN_MOTION":"15.06405593","MEAN_MOTION_DOT":"0.00002737","SITE":"AFETR","NORAD_CAT_ID":"48101","TLE_LINE1":"1 48101U 21027K   21245.71842813  .00002737  00000-0  20252-3 0  9997","MEAN_ELEMENT_THEORY":"SGP4","BSTAR":"0.00020252000000","FILE":"3107724","ARG_OF_PERICENTER":"147.1762","OBJECT_TYPE":"PAYLOAD","TLE_LINE2":"2 48101  53.0573   4.1314 0001316 147.1762 212.9309 15.06405593 24023","INCLINATION":"53.0573","MEAN_MOTION_DDOT":"0.0000000000000","REF_FRAME":"TEME"},{"MEAN_MOTION_DOT":"0.00001180","MEAN_MOTION":"15.06389855","PERIOD":"95.593","COUNTRY_CODE":"US","OBJECT_NAME":"STARLINK-2437","RA_OF_ASC_NODE":"353.9734","OBJECT_TYPE":"PAYLOAD","TLE_LINE2":"2 48102  53.0527 353.9734 0001334 140.6209 219.4877 15.06389855 24167","INCLINATION":"53.0527","BSTAR":"0.00009809600000","FILE":"3107724","ARG_OF_PERICENTER":"140.6209","MEAN_MOTION_DDOT":"0.0000000000000","REF_FRAME":"TEME","SITE":"AFETR","MEAN_ELEMENT_THEORY":"SGP4","TLE_LINE1":"1 48102U 21027L   21245.76086056  .00001180  00000-0  98096-4 0  9995","NORAD_CAT_ID":"48102","CENTER_NAME":"EARTH","ELEMENT_SET_NO":"999","EPOCH":"2021-09-02T18:15:38.352384","MEAN_ANOMALY":"219.4877","EPHEMERIS_TYPE":"0","DECAY_DATE":null,"APOAPSIS":"548.168","PERIAPSIS":"546.321","SEMIMAJOR_AXIS":"6925.380","CLASSIFICATION_TYPE":"U","TIME_SYSTEM":"UTC","LAUNCH_DATE":"2021-04-07","GP_ID":"183988576","RCS_SIZE":"LARGE","REV_AT_EPOCH":"2416","OBJECT_ID":"2021-027L","ECCENTRICITY":"0.00013340"},{"DECAY_DATE":null,"EPHEMERIS_TYPE":"0","MEAN_ANOMALY":"223.5957","EPOCH":"2021-09-02T18:26:15.816768","ELEMENT_SET_NO":"999","CENTER_NAME":"EARTH","SEMIMAJOR_AXIS":"6925.388","PERIAPSIS":"546.298","APOAPSIS":"548.208","CLASSIFICATION_TYPE":"U","TIME_SYSTEM":"UTC","REV_AT_EPOCH":"2416","GP_ID":"183988827","RCS_SIZE":"LARGE","OBJECT_ID":"2021-027M","ECCENTRICITY":"0.00013790","LAUNCH_DATE":"2021-04-07","PERIOD":"95.593","MEAN_MOTION":"15.06387210","MEAN_MOTION_DOT":"0.00001098","RA_OF_ASC_NODE":"353.9649","COUNTRY_CODE":"US","OBJECT_NAME":"STARLINK-2438","REF_FRAME":"TEME","MEAN_MOTION_DDOT":"0.0000000000000","ARG_OF_PERICENTER":"136.5140","FILE":"3107724","BSTAR":"0.00009261100000","TLE_LINE2":"2 48103  53.0425 353.9649 0001379 136.5140 223.5957 15.06387210 24165","OBJECT_TYPE":"PAYLOAD","INCLINATION":"53.0425","TLE_LINE1":"1 48103U 21027M   21245.76823862  .00001098  00000-0  92611-4 0  9995","NORAD_CAT_ID":"48103","MEAN_ELEMENT_THEORY":"SGP4","SITE":"AFETR"},{"SITE":"AFETR","MEAN_ELEMENT_THEORY":"SGP4","NORAD_CAT_ID":"48104","TLE_LINE1":"1 48104U 21027N   21245.78067256  .00001245  00000-0  10245-3 0  9991","TLE_LINE2":"2 48104  53.0577 358.8503 0001310 158.6373 201.4671 15.06392061 24107","INCLINATION":"53.0577","OBJECT_TYPE":"PAYLOAD","ARG_OF_PERICENTER":"158.6373","FILE":"3107724","BSTAR":"0.00010245000000","MEAN_MOTION_DDOT":"0.0000000000000","REF_FRAME":"TEME","OBJECT_NAME":"STARLINK-2439","COUNTRY_CODE":"US","RA_OF_ASC_NODE":"358.8503","MEAN_MOTION_DOT":"0.00001245","MEAN_MOTION":"15.06392061","PERIOD":"95.593","LAUNCH_DATE":"2021-04-07","ECCENTRICITY":"0.00013100","GP_ID":"183989578","RCS_SIZE":"LARGE","OBJECT_ID":"2021-027N","REV_AT_EPOCH":"2410","TIME_SYSTEM":"UTC","APOAPSIS":"548.145","PERIAPSIS":"546.331","SEMIMAJOR_AXIS":"6925.373","CLASSIFICATION_TYPE":"U","CENTER_NAME":"EARTH","ELEMENT_SET_NO":"999","MEAN_ANOMALY":"201.4671","EPOCH":"2021-09-02T18:44:10.109184","EPHEMERIS_TYPE":"0","DECAY_DATE":null}];
